GLOBALSTAR M001 [-]     
1 25162U 98008A   23269.46570288 -.00000074  00000+0  17069-3 0  9990
2 25162  52.0063   6.0074 0001550  29.1966  52.0539 12.38167847165817
GLOBALSTAR M004 [-]     
1 25163U 98008B   23269.18342312 -.00000104  00000+0  18809-6 0  9995
2 25163  51.9987 176.0596 0003132 343.7602 180.9693 12.63338337182158
GLOBALSTAR M002 [-]     
1 25164U 98008C   23268.61922440 -.00000071  00000+0  10489-3 0  9995
2 25164  52.0051  21.2262 0001909  81.1068 278.9968 11.61495223110860
GLOBALSTAR M003 [-]     
1 25165U 98008D   23268.90303788  .00000021  00000+0  11800-2 0  9997
2 25165  51.9732 114.2893 0008531 103.4379   1.8056 12.11939359156791
GLOBALSTAR M014 [-]     
1 25306U 98023A   23269.44923666 -.00000034  00000+0  81404-3 0  9997
2 25306  51.9850 315.6103 0000539 278.4334 183.8496 11.65460010117735
GLOBALSTAR M006 [-]     
1 25307U 98023B   23268.47931704 -.00000060  00000+0  32596-3 0  9999
2 25307  51.9971 346.9623 0003799  61.3923 311.5382 11.58153961143861
GLOBALSTAR M015 [-]     
1 25308U 98023C   23269.46901130 -.00000035  00000+0  87788-3 0  9995
2 25308  51.9835  54.1124 0012937  40.2264 353.5699 11.48850084122079
GLOBALSTAR M008 [-]     
1 25309U 98023D   23268.88342545 -.00000085  00000+0  85169-4 0  9997
2 25309  51.9955 225.3975 0002334 295.4580  81.3465 12.36028135159905
